{"type":"FeatureCollection", "features": [
{"type":"Feature","geometry":{"type":"Polygon","coordinates":[[[47.429,17.093],[47.458,17.131],[47.589,17.463],[48.162,18.149],[49.036,18.58],[49.129,18.612],[49.738,18.694],[50.539,18.802],[51.02,18.867],[51.979,18.996],[52.774,19.261],[53.63,19.546],[54.315,19.774],[54.978,19.995],[55.303,20.971],[55.46,21.443],[55.638,21.979],[55.627,22.024],[55.187,22.704],[55.105,22.621],[54.134,22.74],[53.439,22.826],[52.583,22.931],[52.538,22.955],[52.224,23.328],[51.594,24.078],[51.569,24.256],[51.413,24.323],[51.282,24.303],[51.306,24.406],[51.395,24.488],[51.455,24.594],[51.41,24.624],[51.334,24.532],[51.269,24.624],[51.215,24.626],[51.095,24.56],[50.979,24.568],[50.881,24.636],[50.808,24.747],[50.737,24.782],[50.726,24.882],[50.662,24.98],[50.562,25.055],[50.525,25.293],[50.463,25.447],[50.348,25.482],[50.234,25.615],[50.118,25.868],[50.101,25.989],[50.034,26.033],[49.976,26.14],[50.021,26.198],[50.074,26.132],[50.158,26.102],[50.163,26.177],[50.216,26.215],[50.217,26.324],[50.192,26.404],[50.031,26.495],[49.984,26.708],[50.069,26.729],[49.942,26.858],[49.872,26.862],[49.699,26.958],[49.559,27.154],[49.516,27.188],[49.407,27.133],[49.338,27.19],[49.305,27.326],[49.161,27.427],[49.209,27.458],[49.313,27.449],[49.24,27.545],[49.089,27.551],[48.969,27.62],[48.873,27.612],[48.785,27.745],[48.804,27.815],[48.878,27.837],[48.744,27.961],[48.606,28.126],[48.618,28.217],[48.535,28.299],[48.499,28.393],[48.495,28.5],[48.433,28.54],[47.668,28.534],[47.597,28.609],[47.55,28.771],[47.494,28.904],[47.434,28.995],[46.532,29.096],[46.427,29.076],[46.414,29.063],[45.941,28.906],[45.801,28.838],[45.625,28.682],[45.565,28.602],[45.213,28.016],[44.995,27.773],[44.939,27.62],[44.99,27.533],[45.086,27.472],[45.158,27.392],[45.198,27.279],[45.245,27.232],[45.529,27.086],[45.692,27.053],[45.869,26.888],[45.977,26.845],[46.143,26.84],[46.294,26.786],[46.541,26.627],[46.634,26.607],[46.783,26.631],[46.852,26.61],[47.083,26.398],[47.403,26.283],[47.465,26.175],[47.488,24.834],[47.535,24.735],[47.889,24.502],[48.141,24.27],[48.223,24.159],[48.29,24],[48.305,23.878],[48.299,23.655],[48.014,21.5],[47.745,19.531],[47.429,17.093]]]},"properties":{"name":"Eastern","name_local":"Ash Sharqiyah","iso_3166_2":"SA-04","name_ar":"المنطقة الشرقية","name_ar_full":"المنطقة الشرقية","name_ar_plain":"المنطقة الشرقية","alias_1":"Eastern Province","alias_2":"Eastern","alias_3":"Eastern","alias_4":"Eastern","alias_5":"Eastern","alias_6":"Eastern","alias_7":"Eastern","alias_8":"Eastern","alias_9":"Eastern","alias_10":"Eastern"}},
{"type":"Feature","geometry":{"type":"Polygon","coordinates":[[[46.427,29.076],[46.357,29.063],[45.435,29.136],[44.717,29.193],[44.692,29.202],[43.89,29.767],[43.229,30.234],[42.859,30.495],[42.075,31.08],[41.548,31.349],[40.934,31.662],[40.424,31.921],[40.37,31.938],[40.029,31.994],[39.158,32.121],[38.963,31.994],[37.987,31.753],[37.866,31.372],[37.876,31.231],[38.049,31.078],[38.13,30.949],[38.213,30.895],[38.306,30.883],[38.751,30.922],[39.059,30.961],[39.192,30.958],[39.868,30.868],[40.021,30.777],[40.175,30.736],[40.722,30.725],[40.88,30.733],[40.951,30.711],[41.15,30.572],[41.211,30.551],[41.464,30.53],[41.589,30.438],[41.681,30.282],[41.879,30.14],[41.883,30.062],[41.755,29.964],[40.92,29.511],[40.811,29.438],[40.742,29.334],[40.716,29],[40.685,28.939],[40.544,28.816],[40.74,28.76],[41.271,28.868],[41.417,28.87],[41.659,28.801],[42.001,28.831],[42.342,28.761],[42.434,28.715],[42.555,28.587],[42.618,28.546],[42.738,28.527],[42.876,28.582],[43,28.572],[43.03,28.432],[43.087,28.389],[43.303,28.379],[43.409,28.33],[43.496,28.318],[43.653,28.402],[43.716,28.415],[43.782,28.371],[43.951,28.101],[44.035,27.904],[44.121,27.823],[44.182,27.799],[44.491,27.758],[44.593,27.709],[44.759,27.577],[44.799,27.52],[44.902,27.458],[44.99,27.533],[44.939,27.62],[44.995,27.773],[45.213,28.016],[45.565,28.602],[45.625,28.682],[45.801,28.838],[45.941,28.906],[46.414,29.063],[46.427,29.076]]]},"properties":{"name":"Northern Borders","name_local":"Al Hudud ash Shamaliyah","iso_3166_2":"SA-08","name_ar":"الحدود الشمالية","name_ar_full":"منطقة الحدود الشمالية","name_ar_plain":"الحدود الشمالية","alias_1":"Northern Frontier","alias_2":"Northern Borders","alias_3":"Northern Borders","alias_4":"Northern Borders","alias_5":"Northern Borders","alias_6":"Northern Borders","alias_7":"Northern Borders","alias_8":"Northern Borders","alias_9":"Northern Borders","alias_10":"Northern Borders"}},
{"type":"Feature","geometry":{"type":"Polygon","coordinates":[[[37.987,31.753],[36.96,31.491],[37.48,31.007],[37.981,30.499],[37.671,30.348],[37.635,30.313],[37.492,30.011],[37.47,29.995],[36.756,29.866],[36.705,29.831],[36.477,29.495],[36.069,29.2],[36.016,29.19],[34.949,29.352],[34.853,29.045],[34.843,28.885],[34.997,28.891],[35.22,28.861],[35.374,28.929],[35.579,28.964],[35.855,28.984],[36.051,28.942],[36.152,28.879],[36.41,28.583],[36.505,28.562],[36.614,28.599],[36.855,28.645],[36.991,28.637],[37.226,28.577],[37.398,28.568],[37.45,28.585],[37.545,28.754],[37.694,28.86],[37.772,28.807],[37.763,28.646],[37.773,28.501],[37.844,28.363],[37.957,28.291],[38.128,28.246],[38.364,28.229],[38.456,28.258],[38.596,28.228],[38.662,28.14],[38.736,28.149],[38.904,28.208],[39,28.168],[39.156,28.303],[39.535,28.461],[39.71,28.504],[40.08,28.69],[40.459,28.827],[40.544,28.816],[40.685,28.939],[40.716,29],[40.742,29.334],[40.811,29.438],[40.92,29.511],[41.755,29.964],[41.883,30.062],[41.879,30.14],[41.681,30.282],[41.589,30.438],[41.464,30.53],[41.211,30.551],[41.15,30.572],[40.951,30.711],[40.88,30.733],[40.722,30.725],[40.175,30.736],[40.021,30.777],[39.868,30.868],[39.192,30.958],[39.059,30.961],[38.751,30.922],[38.306,30.883],[38.213,30.895],[38.13,30.949],[38.049,31.078],[37.876,31.231],[37.866,31.372],[37.987,31.753]]]},"properties":{"name":"Al-Jowf","name_local":"Al Jawf","iso_3166_2":"SA-12","name_ar":"الجوف","name_ar_full":"منطقة الجوف","name_ar_plain":"الجوف","alias_1":"JawfAl Joaf","alias_2":"Al-Jouf","alias_3":"Jowf","alias_4":"Jouf","alias_5":"Al Jouf","alias_6":"Al-Jowf","alias_7":"Al-Jowf","alias_8":"Al-Jowf","alias_9":"Al-Jowf","alias_10":"Al-Jowf"}},
{"type":"Feature","geometry":{"type":"Polygon","coordinates":[[[47.429,17.093],[47.745,19.531],[47.615,19.496],[45.273,19.257],[45.014,19.274],[44.795,19.348],[44.517,19.513],[44.505,19.332],[44.414,19.274],[44.36,19.168],[44.395,19.042],[44.396,18.925],[44.332,18.817],[44.061,18.692],[43.968,18.544],[43.856,18.453],[43.694,18.291],[43.638,18.169],[43.676,17.998],[43.644,17.685],[43.666,17.57],[43.638,17.439],[43.751,17.346],[43.982,17.357],[44.104,17.352],[44.149,17.405],[44.212,17.391],[44.404,17.419],[44.562,17.404],[44.646,17.432],[45.165,17.428],[45.222,17.417],[45.43,17.312],[46.323,17.224],[46.71,17.275],[46.747,17.255],[46.97,16.957],[47.129,16.943],[47.191,16.959],[47.429,17.093]]]},"properties":{"name":"Najran","name_local":"Najran","iso_3166_2":"SA-10","name_ar":"نجران","name_ar_full":"منطقة نجران","name_ar_plain":"نجران","alias_1":"Najran","alias_2":"Najran","alias_3":"Najran","alias_4":"Najran","alias_5":"Najran","alias_6":"Najran","alias_7":"Najran","alias_8":"Najran","alias_9":"Najran","alias_10":"Najran"}},
{"type":"Feature","geometry":{"type":"Polygon","coordinates":[[[43.638,17.439],[43.666,17.57],[43.644,17.685],[43.676,17.998],[43.638,18.169],[43.694,18.291],[43.856,18.453],[43.968,18.544],[44.061,18.692],[44.332,18.817],[44.396,18.925],[44.395,19.042],[44.36,19.168],[44.414,19.274],[44.505,19.332],[44.517,19.513],[44.106,19.867],[44.01,20.019],[43.937,20.107],[43.93,20.163],[43.969,20.334],[44.047,20.459],[44.062,20.539],[43.814,20.854],[43.668,20.976],[43.561,20.938],[43.404,20.851],[43.341,20.838],[43.222,20.865],[43.05,20.818],[42.952,20.81],[42.833,20.725],[42.635,20.624],[42.381,20.408],[42.231,20.345],[42.153,20.399],[42.032,20.625],[41.984,20.471],[42.031,20.373],[41.983,20.276],[41.843,20.178],[41.8,20.004],[41.699,19.797],[41.805,19.813],[41.859,19.762],[41.864,19.7],[41.834,19.57],[41.841,19.5],[41.889,19.383],[41.832,19.245],[41.765,19.221],[41.588,19.221],[41.494,19.16],[41.391,19.153],[41.384,18.92],[41.403,18.838],[41.471,18.786],[41.666,18.776],[41.734,18.723],[41.803,18.525],[41.806,18.441],[41.771,18.314],[41.923,18.312],[41.938,18.258],[41.917,18.138],[41.962,18.045],[42.074,18.046],[42.167,17.924],[42.368,17.905],[42.439,17.866],[42.489,17.777],[42.629,17.661],[42.691,17.702],[42.736,17.867],[42.79,17.943],[42.878,17.998],[42.925,17.993],[42.963,17.867],[43.04,17.807],[43.145,17.666],[43.222,17.64],[43.342,17.482],[43.435,17.523],[43.577,17.483],[43.638,17.439]]]},"properties":{"name":"'Asir","name_local":"`Asir","iso_3166_2":"SA-14","name_ar":"عسير","name_ar_full":"منطقة عسير","name_ar_plain":"عسير","alias_1":"Asir","alias_2":"Aseer","alias_3":"Assyear","alias_4":"'Asir","alias_5":"'Asir","alias_6":"'Asir","alias_7":"'Asir","alias_8":"'Asir","alias_9":"'Asir","alias_10":"'Asir"}},
{"type":"Feature","geometry":{"type":"MultiPolygon","coordinates":[[[[41.597,18.121],[41.674,18.009],[41.719,17.909],[41.848,17.812],[41.869,17.821],[42.094,17.652],[42.153,17.574],[42.302,17.454],[42.339,17.174],[42.402,17.164],[42.438,17.065],[42.544,17.004],[42.542,16.878],[42.636,16.815],[42.706,16.741],[42.737,16.671],[42.725,16.566],[42.788,16.472],[42.789,16.371],[42.872,16.402],[42.917,16.484],[43.036,16.536],[43.085,16.673],[43.163,16.662],[43.169,16.737],[43.209,16.773],[43.146,16.834],[43.109,16.927],[43.136,17.031],[43.118,17.086],[43.156,17.21],[43.249,17.252],[43.216,17.387],[43.342,17.482],[43.222,17.64],[43.145,17.666],[43.04,17.807],[42.963,17.867],[42.925,17.993],[42.878,17.998],[42.79,17.943],[42.736,17.867],[42.691,17.702],[42.629,17.661],[42.489,17.777],[42.439,17.866],[42.368,17.905],[42.167,17.924],[42.074,18.046],[41.962,18.045],[41.917,18.138],[41.938,18.258],[41.923,18.312],[41.771,18.314],[41.722,18.242],[41.641,18.197],[41.597,18.121]]],[[[42.186,16.706],[42.104,16.792],[42.041,16.802],[42.011,16.739],[41.843,16.747],[41.976,16.664],[42.086,16.694],[42.156,16.585],[42.188,16.605],[42.186,16.706]]],[[[41.919,16.791],[41.945,16.942],[41.835,16.892],[41.919,16.791]]]]},"properties":{"name":"Jazan","name_local":"Jizan","iso_3166_2":"SA-09","name_ar":"جازان","name_ar_full":"منطقة جازان","name_ar_plain":"جازان","alias_1":"Qizan","alias_2":"Gazan","alias_3":"Jazan","alias_4":"Jazan","alias_5":"Jazan","alias_6":"Jazan","alias_7":"Jazan","alias_8":"Jazan","alias_9":"Jazan","alias_10":"Jazan"}},
{"type":"Feature","geometry":{"type":"Polygon","coordinates":[[[37.383,24.54],[37.431,24.657],[37.638,24.689],[37.735,24.777],[37.944,24.797],[38.001,24.873],[37.988,25.202],[38.023,25.429],[37.987,25.486],[37.869,25.521],[37.803,25.719],[37.755,25.786],[37.625,25.884],[37.546,26.02],[37.368,26.112],[37.272,26.078],[37.167,26.335],[37.191,26.417],[37.253,26.508],[37.254,26.593],[37.054,26.674],[37.002,26.733],[36.979,26.842],[37.001,26.978],[36.985,27.12],[36.918,27.181],[36.822,27.171],[36.824,27.241],[36.939,27.266],[37.196,27.375],[37.321,27.359],[37.406,27.311],[37.545,27.303],[37.732,27.393],[37.818,27.339],[37.846,27.247],[37.94,27.095],[37.992,27.064],[38.136,27.053],[38.205,27.018],[38.231,26.94],[38.317,26.87],[38.314,26.809],[38.401,26.811],[38.491,26.875],[38.583,26.874],[38.657,26.842],[38.81,26.848],[38.995,26.772],[39.116,26.689],[39.304,26.672],[39.72,26.73],[39.816,26.657],[39.867,26.72],[39.925,26.882],[40,26.99],[40.158,27.125],[40.166,27.187],[40,27.286],[39.92,27.361],[39.811,27.753],[39.787,27.796],[39.611,27.933],[39.472,28.024],[39.38,28.062],[39.058,28.129],[39,28.168],[38.904,28.208],[38.736,28.149],[38.662,28.14],[38.596,28.228],[38.456,28.258],[38.364,28.229],[38.128,28.246],[37.957,28.291],[37.844,28.363],[37.773,28.501],[37.763,28.646],[37.772,28.807],[37.694,28.86],[37.545,28.754],[37.45,28.585],[37.398,28.568],[37.226,28.577],[36.991,28.637],[36.855,28.645],[36.614,28.599],[36.505,28.562],[36.41,28.583],[36.152,28.879],[36.051,28.942],[35.855,28.984],[35.579,28.964],[35.374,28.929],[35.22,28.861],[34.997,28.891],[34.843,28.885],[34.836,28.816],[34.778,28.665],[34.804,28.527],[34.675,28.277],[34.627,28.161],[34.779,28.096],[34.901,28.082],[35.052,28.12],[35.11,28.079],[35.216,28.054],[35.181,28.003],[35.323,27.876],[35.351,27.801],[35.415,27.751],[35.492,27.632],[35.511,27.544],[35.56,27.456],[35.7,27.325],[35.813,27.191],[35.832,27.093],[35.977,26.948],[36.098,26.754],[36.23,26.626],[36.309,26.498],[36.383,26.335],[36.449,26.247],[36.537,26.082],[36.696,26.022],[36.706,25.944],[36.663,25.856],[36.725,25.754],[36.817,25.758],[36.882,25.673],[36.936,25.646],[37.105,25.322],[37.23,25.194],[37.28,24.964],[37.257,24.871],[37.149,24.851],[37.383,24.54]]]},"properties":{"name":"Tabuk","name_local":"Tabuk","iso_3166_2":"SA-07","name_ar":"تبوك","name_ar_full":"منطقة تبوك","name_ar_plain":"تبوك","alias_1":"Tabouk","alias_2":"Tabuk","alias_3":"Tabuk","alias_4":"Tabuk","alias_5":"Tabuk","alias_6":"Tabuk","alias_7":"Tabuk","alias_8":"Tabuk","alias_9":"Tabuk","alias_10":"Tabuk"}},
{"type":"Feature","geometry":{"type":"Polygon","coordinates":[[[38.644,23.419],[38.9,23.449],[39.207,23.167],[39.434,23.171],[39.487,23.068],[39.776,23.143],[39.87,23.154],[39.943,23.115],[39.942,22.981],[39.887,22.861],[39.898,22.805],[40.052,22.735],[40.083,22.653],[40.064,22.549],[40.105,22.5],[40.266,22.512],[40.409,22.616],[40.464,22.619],[40.617,22.575],[40.665,22.586],[40.802,22.757],[41.087,22.965],[41.284,23.134],[41.4,23.173],[41.43,23.271],[41.282,23.357],[41.286,23.403],[41.361,23.463],[41.491,23.531],[41.669,23.602],[41.765,23.73],[41.736,23.923],[41.792,23.964],[41.986,23.949],[41.996,24.213],[42.016,24.35],[42.001,24.405],[42.069,24.5],[42.096,24.612],[42.009,24.671],[41.96,24.744],[41.908,24.932],[41.873,24.999],[41.714,25.047],[41.637,25.147],[41.656,25.406],[41.61,25.486],[41.41,25.537],[41.324,25.558],[41.044,25.598],[40.871,25.592],[40.759,25.541],[40.628,25.419],[40.362,25.396],[40.114,25.316],[39.994,25.337],[39.947,25.422],[39.956,25.688],[39.904,25.953],[39.96,26.288],[39.925,26.346],[39.854,26.338],[39.779,26.409],[39.84,26.547],[39.816,26.657],[39.72,26.73],[39.304,26.672],[39.116,26.689],[38.995,26.772],[38.81,26.848],[38.657,26.842],[38.583,26.874],[38.491,26.875],[38.401,26.811],[38.314,26.809],[38.317,26.87],[38.231,26.94],[38.205,27.018],[38.136,27.053],[37.992,27.064],[37.94,27.095],[37.846,27.247],[37.818,27.339],[37.732,27.393],[37.545,27.303],[37.406,27.311],[37.321,27.359],[37.196,27.375],[36.939,27.266],[36.824,27.241],[36.822,27.171],[36.918,27.181],[36.985,27.12],[37.001,26.978],[36.979,26.842],[37.002,26.733],[37.054,26.674],[37.254,26.593],[37.253,26.508],[37.191,26.417],[37.167,26.335],[37.272,26.078],[37.368,26.112],[37.546,26.02],[37.625,25.884],[37.755,25.786],[37.803,25.719],[37.869,25.521],[37.987,25.486],[38.023,25.429],[37.988,25.202],[38.001,24.873],[37.944,24.797],[37.735,24.777],[37.638,24.689],[37.431,24.657],[37.383,24.54],[37.457,24.441],[37.429,24.367],[37.523,24.268],[37.586,24.247],[37.676,24.291],[37.866,24.15],[37.918,24.15],[38.046,24.067],[38.079,24.07],[38.185,23.976],[38.365,23.87],[38.453,23.784],[38.495,23.645],[38.6,23.568],[38.644,23.419]]]},"properties":{"name":"Al Madinah","name_local":"Al Madinah","iso_3166_2":"SA-03","name_ar":"المدينة المنورة","name_ar_full":"منطقة المدينة المنورة","name_ar_plain":"المدينة المنورة","alias_1":"Madinah","alias_2":"Al Madinah al Munawwarah","alias_3":"Monwarah","alias_4":"Medina","alias_5":"Médine","alias_6":"Al Madinah","alias_7":"Al Madinah","alias_8":"Al Madinah","alias_9":"Al Madinah","alias_10":"Al Madinah"}},
{"type":"Feature","geometry":{"type":"Polygon","coordinates":[[[41.597,18.121],[41.641,18.197],[41.722,18.242],[41.771,18.314],[41.806,18.441],[41.803,18.525],[41.734,18.723],[41.666,18.776],[41.471,18.786],[41.403,18.838],[41.384,18.92],[41.391,19.153],[41.494,19.16],[41.588,19.221],[41.765,19.221],[41.832,19.245],[41.889,19.383],[41.841,19.5],[41.834,19.57],[41.864,19.7],[41.859,19.762],[41.805,19.813],[41.699,19.797],[41.505,19.769],[41.456,19.704],[41.349,19.399],[41.288,19.368],[41.17,19.397],[41.084,19.498],[40.969,19.58],[40.969,19.702],[40.947,19.809],[40.958,19.911],[40.916,20],[40.806,20.047],[40.816,20.103],[40.914,20.194],[41.115,20.245],[41.25,20.469],[41.229,20.637],[41.25,20.721],[41.331,20.763],[41.423,20.709],[41.454,20.626],[41.528,20.572],[41.666,20.61],[41.773,20.611],[41.91,20.675],[41.976,20.671],[42.032,20.625],[42.153,20.399],[42.231,20.345],[42.381,20.408],[42.635,20.624],[42.833,20.725],[42.952,20.81],[43.05,20.818],[43.222,20.865],[43.341,20.838],[43.404,20.851],[43.561,20.938],[43.668,20.976],[43.406,21.341],[43.389,21.423],[43.436,21.612],[43.424,21.779],[43.498,21.913],[43.508,21.976],[43.458,22.31],[43.486,22.498],[43.43,22.533],[43.311,22.554],[43.149,22.522],[43.015,22.567],[42.986,22.654],[43.011,22.818],[42.916,22.9],[42.653,22.926],[42.498,22.923],[42.418,22.944],[42.353,23.001],[42.224,23.284],[42.195,23.427],[42.107,23.663],[41.979,23.792],[41.986,23.949],[41.792,23.964],[41.736,23.923],[41.765,23.73],[41.669,23.602],[41.491,23.531],[41.361,23.463],[41.286,23.403],[41.282,23.357],[41.43,23.271],[41.4,23.173],[41.284,23.134],[41.087,22.965],[40.802,22.757],[40.665,22.586],[40.617,22.575],[40.464,22.619],[40.409,22.616],[40.266,22.512],[40.105,22.5],[40.064,22.549],[40.083,22.653],[40.052,22.735],[39.898,22.805],[39.887,22.861],[39.942,22.981],[39.943,23.115],[39.87,23.154],[39.776,23.143],[39.487,23.068],[39.434,23.171],[39.207,23.167],[38.9,23.449],[38.644,23.419],[38.711,23.236],[38.806,23.093],[38.779,23.041],[38.814,22.983],[38.894,22.965],[38.965,22.87],[38.903,22.843],[38.958,22.775],[39.082,22.547],[39.082,22.436],[39.143,22.391],[39.04,22.236],[39.044,22.131],[39.006,22.002],[38.931,22.006],[38.979,21.862],[39.079,21.706],[39.12,21.517],[39.159,21.508],[39.171,21.404],[39.081,21.315],[39.17,21.191],[39.174,21.109],[39.238,21.063],[39.297,20.928],[39.506,20.746],[39.493,20.706],[39.646,20.462],[39.76,20.351],[39.923,20.264],[40.068,20.287],[40.165,20.2],[40.222,20.189],[40.268,20.125],[40.394,20.064],[40.523,19.972],[40.629,19.792],[40.725,19.789],[40.791,19.714],[40.785,19.596],[40.835,19.547],[40.945,19.506],[40.956,19.343],[41.009,19.304],[41.069,19.125],[41.177,19.067],[41.137,18.958],[41.171,18.872],[41.249,18.834],[41.21,18.698],[41.267,18.601],[41.356,18.569],[41.438,18.464],[41.451,18.356],[41.505,18.243],[41.597,18.121]]]},"properties":{"name":"Makkah","name_local":"Makkah","iso_3166_2":"SA-02","name_ar":"مكة المكرمة","name_ar_full":"منطقة مكة المكرمة","name_ar_plain":"مكة المكرمة","alias_1":"La Meca","alias_2":"La Mecca","alias_3":"La Mecque","alias_4":"Makka","alias_5":"Makkah al-Mukarramah","alias_6":"Mecca","alias_7":"Meca","alias_8":"Mecka","alias_9":"Mekka","alias_10":"Makkah Al Mukarramah"}},
{"type":"Feature","geometry":{"type":"Polygon","coordinates":[[[44.628,27.222],[44.692,27.197],[44.815,27.099],[44.845,26.999],[44.821,26.954],[44.68,26.886],[44.525,26.716],[44.392,26.648],[44.397,26.536],[44.376,26.406],[44.408,26.325],[44.511,26.227],[44.676,26.001],[44.668,25.89],[44.727,25.757],[44.735,25.633],[44.712,25.579],[44.343,25.561],[44.13,25.587],[43.99,25.548],[43.869,25.385],[43.68,25.264],[43.346,25.191],[43.203,25.079],[43.106,24.962],[43.088,24.91],[43.134,24.778],[43.098,24.716],[43.01,24.682],[42.884,24.705],[42.693,24.684],[42.512,24.702],[42.29,24.782],[42.182,24.741],[42.096,24.612],[42.069,24.5],[42.001,24.405],[42.016,24.35],[41.996,24.213],[41.986,23.949],[41.979,23.792],[42.107,23.663],[42.195,23.427],[42.224,23.284],[42.353,23.001],[42.418,22.944],[42.498,22.923],[42.653,22.926],[42.916,22.9],[43.011,22.818],[42.986,22.654],[43.015,22.567],[43.149,22.522],[43.311,22.554],[43.43,22.533],[43.486,22.498],[43.458,22.31],[43.508,21.976],[43.498,21.913],[43.424,21.779],[43.436,21.612],[43.389,21.423],[43.406,21.341],[43.668,20.976],[43.814,20.854],[44.062,20.539],[44.047,20.459],[43.969,20.334],[43.93,20.163],[43.937,20.107],[44.01,20.019],[44.106,19.867],[44.517,19.513],[44.795,19.348],[45.014,19.274],[45.273,19.257],[47.615,19.496],[47.745,19.531],[48.014,21.5],[48.299,23.655],[48.305,23.878],[48.29,24],[48.223,24.159],[48.141,24.27],[47.889,24.502],[47.535,24.735],[47.488,24.834],[47.465,26.175],[47.403,26.283],[47.083,26.398],[46.852,26.61],[46.783,26.631],[46.634,26.607],[46.541,26.627],[46.294,26.786],[46.143,26.84],[45.977,26.845],[45.869,26.888],[45.692,27.053],[45.529,27.086],[45.245,27.232],[45.198,27.279],[45.158,27.392],[45.086,27.472],[44.99,27.533],[44.902,27.458],[44.799,27.52],[44.668,27.435],[44.624,27.363],[44.628,27.222]]]},"properties":{"name":"Riyadh","name_local":"Ar Riyad","iso_3166_2":"SA-01","name_ar":"الرياض","name_ar_full":"منطقة الرياض","name_ar_plain":"الرياض","alias_1":"Riyad","alias_2":"Riad","alias_3":"Riyadh","alias_4":"Riyadh","alias_5":"Riyadh","alias_6":"Riyadh","alias_7":"Riyadh","alias_8":"Riyadh","alias_9":"Riyadh","alias_10":"Riyadh"}},
{"type":"Feature","geometry":{"type":"Polygon","coordinates":[[[44.628,27.222],[44.509,27.093],[44.436,27.07],[44.265,27.087],[44.197,27.118],[43.997,27.279],[43.893,27.328],[43.797,27.305],[43.418,27.131],[43.259,27.005],[43.217,26.926],[43.147,26.859],[42.918,26.771],[42.798,26.702],[42.535,26.511],[42.418,26.389],[42.332,26.261],[42.215,26.251],[42.142,26.142],[42.154,25.958],[42.122,25.937],[41.958,25.973],[41.909,25.938],[41.9,25.849],[41.947,25.77],[41.909,25.706],[41.743,25.675],[41.583,25.596],[41.449,25.569],[41.41,25.537],[41.61,25.486],[41.656,25.406],[41.637,25.147],[41.714,25.047],[41.873,24.999],[41.908,24.932],[41.96,24.744],[42.009,24.671],[42.096,24.612],[42.182,24.741],[42.29,24.782],[42.512,24.702],[42.693,24.684],[42.884,24.705],[43.01,24.682],[43.098,24.716],[43.134,24.778],[43.088,24.91],[43.106,24.962],[43.203,25.079],[43.346,25.191],[43.68,25.264],[43.869,25.385],[43.99,25.548],[44.13,25.587],[44.343,25.561],[44.712,25.579],[44.735,25.633],[44.727,25.757],[44.668,25.89],[44.676,26.001],[44.511,26.227],[44.408,26.325],[44.376,26.406],[44.397,26.536],[44.392,26.648],[44.525,26.716],[44.68,26.886],[44.821,26.954],[44.845,26.999],[44.815,27.099],[44.692,27.197],[44.628,27.222]]]},"properties":{"name":"Al-Qassim","name_local":"Al Quassim","iso_3166_2":"SA-05","name_ar":"القصيم","name_ar_full":"منطقة القصيم","name_ar_plain":"القصيم","alias_1":"Al Gassim","alias_2":"Gasim","alias_3":"Qaseem","alias_4":"Al Qasseem","alias_5":"Qassim","alias_6":"Al Qassim","alias_7":"Al-Qassim","alias_8":"Al-Qassim","alias_9":"Al-Qassim","alias_10":"Al-Qassim"}},
{"type":"Feature","geometry":{"type":"Polygon","coordinates":[[[41.41,25.537],[41.449,25.569],[41.583,25.596],[41.743,25.675],[41.909,25.706],[41.947,25.77],[41.9,25.849],[41.909,25.938],[41.958,25.973],[42.122,25.937],[42.154,25.958],[42.142,26.142],[42.215,26.251],[42.332,26.261],[42.418,26.389],[42.535,26.511],[42.798,26.702],[42.918,26.771],[43.147,26.859],[43.217,26.926],[43.259,27.005],[43.418,27.131],[43.797,27.305],[43.893,27.328],[43.997,27.279],[44.197,27.118],[44.265,27.087],[44.436,27.07],[44.509,27.093],[44.628,27.222],[44.624,27.363],[44.668,27.435],[44.799,27.52],[44.759,27.577],[44.593,27.709],[44.491,27.758],[44.182,27.799],[44.121,27.823],[44.035,27.904],[43.951,28.101],[43.782,28.371],[43.716,28.415],[43.653,28.402],[43.496,28.318],[43.409,28.33],[43.303,28.379],[43.087,28.389],[43.03,28.432],[43,28.572],[42.876,28.582],[42.738,28.527],[42.618,28.546],[42.555,28.587],[42.434,28.715],[42.342,28.761],[42.001,28.831],[41.659,28.801],[41.417,28.87],[41.271,28.868],[40.74,28.76],[40.544,28.816],[40.459,28.827],[40.08,28.69],[39.71,28.504],[39.535,28.461],[39.156,28.303],[39,28.168],[39.058,28.129],[39.38,28.062],[39.472,28.024],[39.611,27.933],[39.787,27.796],[39.811,27.753],[39.92,27.361],[40,27.286],[40.166,27.187],[40.158,27.125],[40,26.99],[39.925,26.882],[39.867,26.72],[39.816,26.657],[39.84,26.547],[39.779,26.409],[39.854,26.338],[39.925,26.346],[39.96,26.288],[39.904,25.953],[39.956,25.688],[39.947,25.422],[39.994,25.337],[40.114,25.316],[40.362,25.396],[40.628,25.419],[40.759,25.541],[40.871,25.592],[41.044,25.598],[41.324,25.558],[41.41,25.537]]]},"properties":{"name":"Ha'il","name_local":"Ha'il","iso_3166_2":"SA-06","name_ar":"حائل","name_ar_full":"منطقة حائل","name_ar_plain":"حائل","alias_1":"Hail","alias_2":"Haʼil","alias_3":"Ha'il","alias_4":"Ha'il","alias_5":"Ha'il","alias_6":"Ha'il","alias_7":"Ha'il","alias_8":"Ha'il","alias_9":"Ha'il","alias_10":"Ha'il"}},
{"type":"Feature","geometry":{"type":"Polygon","coordinates":[[[42.032,20.625],[41.976,20.671],[41.91,20.675],[41.773,20.611],[41.666,20.61],[41.528,20.572],[41.454,20.626],[41.423,20.709],[41.331,20.763],[41.25,20.721],[41.229,20.637],[41.25,20.469],[41.115,20.245],[40.914,20.194],[40.816,20.103],[40.806,20.047],[40.916,20],[40.958,19.911],[40.947,19.809],[40.969,19.702],[40.969,19.58],[41.084,19.498],[41.17,19.397],[41.288,19.368],[41.349,19.399],[41.456,19.704],[41.505,19.769],[41.699,19.797],[41.8,20.004],[41.843,20.178],[41.983,20.276],[42.031,20.373],[41.984,20.471],[42.032,20.625]]]},"properties":{"name":"Al-Baha","name_local":"Al Bahah","iso_3166_2":"SA-11","name_ar":"الباحة","name_ar_full":"منطقة الباحة","name_ar_plain":"الباحة","alias_1":"Baha","alias_2":"Al Baha","alias_3":"Al-Baha","alias_4":"Al-Baha","alias_5":"Al-Baha","alias_6":"Al-Baha","alias_7":"Al-Baha","alias_8":"Al-Baha","alias_9":"Al-Baha","alias_10":"Al-Baha"}}
]}