{"type":"FeatureCollection", "features": [
{"type":"Feature","geometry":{"type":"MultiPolygon","coordinates":[[[[56.349,25.294],[56.344,25.267],[56.236,25.211],[56.207,25.227],[56.166,25.22],[56.153,25.103],[56.164,25.053],[56.254,24.977],[56.27,24.939],[56.282,24.951],[56.306,25.021],[56.286,25.078],[56.362,25.068],[56.366,25.209],[56.383,25.321],[56.349,25.294]]],[[[56.261,25.331],[56.272,25.359],[56.365,25.423],[56.37,25.526],[56.34,25.605],[56.279,25.627],[56.222,25.614],[56.152,25.658],[56.069,25.642],[55.966,25.577],[55.983,25.496],[56.064,25.487],[56.104,25.5],[56.128,25.466],[56.092,25.418],[56.137,25.372],[56.077,25.343],[56.001,25.381],[55.983,25.332],[55.977,25.282],[55.986,25.225],[56.109,25.218],[56.175,25.286],[56.163,25.335],[56.234,25.313],[56.261,25.331]]],[[[56.275,24.872],[56.276,24.914],[56.253,24.895],[56.275,24.872]]]]},"properties":{"name":"Fujairah","name_local":"Fujayrah","iso_3166_2":"AE-FU","name_ar":"الفجيرة","name_ar_full":"الفجيرة","name_ar_plain":"الفجيرة","alias_1":"Al Foudjaïrah, Fudjayra","alias_2":"Al Fujayrah, Fujaira, Fujairah, Fujeira","alias_3":"Emirate of Fujairah","alias_4":"Fujairah","alias_5":"Fujairah","alias_6":"Fujairah","alias_7":"Fujairah","alias_8":"Fujairah","alias_9":"Fujairah"}},
{"type":"Feature","geometry":{"type":"MultiPolygon","coordinates":[[[[56.349,25.294],[56.383,25.321],[56.36,25.367],[56.365,25.423],[56.272,25.359],[56.261,25.331],[56.349,25.294]]],[[[56.282,24.951],[56.383,24.978],[56.362,25.068],[56.286,25.078],[56.306,25.021],[56.282,24.951]]],[[[55.976,24.972],[55.95,25.044],[55.951,25.084],[55.979,25.145],[55.953,25.177],[55.986,25.225],[55.977,25.282],[55.983,25.332],[56.001,25.381],[55.966,25.385],[55.928,25.348],[55.904,25.295],[55.863,25.28],[55.807,25.286],[55.761,25.369],[55.696,25.418],[55.626,25.444],[55.515,25.513],[55.492,25.46],[55.557,25.432],[55.632,25.413],[55.597,25.36],[55.513,25.364],[55.424,25.395],[55.363,25.324],[55.325,25.307],[55.378,25.293],[55.449,25.307],[55.474,25.281],[55.601,25.2],[55.629,25.164],[55.658,25.055],[55.62,24.999],[55.661,24.895],[55.681,24.769],[55.671,24.709],[55.749,24.691],[55.8,24.693],[55.789,24.855],[55.829,24.921],[55.897,24.969],[55.976,24.972]]],[[[56.164,25.053],[56.152,25.036],[56.189,24.959],[56.204,24.901],[56.253,24.895],[56.276,24.914],[56.27,24.939],[56.254,24.977],[56.164,25.053]]]]},"properties":{"name":"Sharjah","name_local":"Sharjah","iso_3166_2":"AE-SH","name_ar":"الشارقة","name_ar_full":"إمارة الشارقة","name_ar_plain":"الشارقة","alias_1":"Ach Chârdjah","alias_2":"Chārdja","alias_3":"Ash Shāriqah","alias_4":"Ash Shārjah","alias_5":"Sharjah and Dependencies","alias_6":"Sharjah and Kalba","alias_7":"Emirate of Sharjah","alias_8":"Sharjah","alias_9":"Sharjah"}},
{"type":"Feature","geometry":{"type":"MultiPolygon","coordinates":[[[[56.234,25.313],[56.163,25.335],[56.175,25.286],[56.109,25.218],[55.986,25.225],[55.953,25.177],[55.979,25.145],[55.951,25.084],[55.95,25.044],[55.976,24.972],[56.006,24.956],[56.025,24.883],[56.106,24.82],[56.171,24.824],[56.242,24.842],[56.275,24.872],[56.253,24.895],[56.204,24.901],[56.189,24.959],[56.152,25.036],[56.164,25.053],[56.153,25.103],[56.166,25.22],[56.207,25.227],[56.235,25.267],[56.234,25.313]]],[[[56.152,25.658],[56.141,25.733],[56.167,25.778],[56.145,25.838],[56.171,25.877],[56.183,26.015],[56.163,26.074],[56.077,26.061],[56.055,25.989],[56.017,25.91],[56.014,25.879],[55.842,25.714],[55.771,25.687],[55.746,25.662],[55.802,25.626],[55.845,25.474],[55.882,25.437],[55.881,25.394],[55.928,25.348],[55.966,25.385],[56.001,25.381],[56.077,25.343],[56.137,25.372],[56.092,25.418],[56.128,25.466],[56.104,25.5],[56.064,25.487],[55.983,25.496],[55.966,25.577],[56.069,25.642],[56.152,25.658]]]]},"properties":{"name":"Ras Al Khaimah","name_local":"Ras Al Khaymah","iso_3166_2":"AE-RK","name_ar":"رأس الخيمة","name_ar_full":"رأس الخيمة","name_ar_plain":"راس الخيمة","alias_1":"Ras al Khaima","alias_2":"Râs al Khaïmah","alias_3":"Rā's al Khayma","alias_4":"Rā's al Khaymah","alias_5":"Emirate of Ras Al Khaimah","alias_6":"RAK","alias_7":"Ras Al Khaimah","alias_8":"Ras Al Khaimah","alias_9":"Ras Al Khaimah"}},
{"type":"Feature","geometry":{"type":"MultiPolygon","coordinates":[[[[56.171,24.824],[56.106,24.82],[56.076,24.752],[56.118,24.735],[56.171,24.824]]],[[[55.325,25.307],[55.263,25.245],[55.259,25.215],[55.082,25.017],[55.006,24.97],[55.015,24.96],[55.138,24.637],[55.16,24.603],[55.201,24.595],[55.412,24.603],[55.47,24.619],[55.538,24.654],[55.671,24.709],[55.681,24.769],[55.661,24.895],[55.62,24.999],[55.658,25.055],[55.629,25.164],[55.601,25.2],[55.474,25.281],[55.449,25.307],[55.378,25.293],[55.325,25.307]]]]},"properties":{"name":"Dubai","name_local":"Dubay","iso_3166_2":"AE-DU","name_ar":"دبي","name_ar_full":"إمارة دبي","name_ar_plain":"دبي","alias_1":"Dibay","alias_2":"Doubaï","alias_3":"Dubai, Dubayy","alias_4":"Emirate of Dubai","alias_5":"Dubai","alias_6":"Dubai","alias_7":"Dubai","alias_8":"Dubai","alias_9":"Dubai"}},
{"type":"Feature","geometry":{"type":"MultiPolygon","coordinates":[[[[55.8,24.693],[55.749,24.691],[55.671,24.709],[55.538,24.654],[55.47,24.619],[55.412,24.603],[55.201,24.595],[55.16,24.603],[55.138,24.637],[55.015,24.96],[55.006,24.97],[54.968,24.959],[54.869,24.889],[54.76,24.831],[54.739,24.79],[54.707,24.804],[54.64,24.733],[54.662,24.678],[54.636,24.598],[54.582,24.508],[54.537,24.498],[54.479,24.57],[54.441,24.524],[54.559,24.458],[54.483,24.425],[54.486,24.388],[54.446,24.316],[54.383,24.255],[54.323,24.271],[54.253,24.221],[54.187,24.204],[54.123,24.145],[54.014,24.113],[53.951,24.104],[53.854,24.062],[53.732,24.063],[53.657,24.049],[53.581,24.049],[53.519,24.097],[53.479,24.094],[53.437,24.12],[53.309,24.096],[53.254,24.099],[53.216,24.142],[53.165,24.17],[53.067,24.122],[53,24.166],[52.947,24.138],[52.839,24.152],[52.783,24.138],[52.72,24.152],[52.67,24.145],[52.634,24.19],[52.581,24.199],[52.575,24.152],[52.457,24.085],[52.444,24.063],[52.378,24.038],[52.341,24.008],[52.279,24.001],[52.224,23.974],[52.067,23.963],[52.024,23.988],[51.931,23.988],[51.809,24.001],[51.786,24.059],[51.772,24.176],[51.782,24.24],[51.74,24.278],[51.71,24.221],[51.634,24.227],[51.624,24.339],[51.592,24.329],[51.569,24.256],[51.573,24.128],[51.594,24.078],[51.807,23.824],[52.224,23.328],[52.538,22.955],[52.583,22.931],[53.022,22.877],[53.439,22.826],[54.134,22.74],[54.551,22.689],[55.105,22.621],[55.12,22.623],[55.187,22.704],[55.198,22.849],[55.191,22.995],[55.226,23.121],[55.321,23.275],[55.343,23.336],[55.375,23.469],[55.445,23.552],[55.478,23.676],[55.538,23.77],[55.531,23.875],[55.462,23.931],[55.5,23.971],[55.647,24.025],[55.762,24.028],[55.807,24.007],[55.998,24.081],[55.961,24.142],[55.933,24.221],[55.903,24.232],[55.847,24.211],[55.768,24.225],[55.754,24.245],[55.807,24.341],[55.811,24.389],[55.775,24.426],[55.76,24.559],[55.79,24.62],[55.818,24.643],[55.8,24.693]]],[[[53.657,24.158],[53.741,24.133],[53.807,24.136],[53.855,24.152],[53.92,24.14],[53.965,24.173],[53.955,24.201],[53.892,24.218],[53.84,24.264],[53.77,24.227],[53.723,24.23],[53.628,24.172],[53.657,24.158]]],[[[54.191,24.227],[54.188,24.277],[54.137,24.327],[54.102,24.298],[54.113,24.272],[54.191,24.227]]],[[[52.574,24.344],[52.556,24.307],[52.592,24.253],[52.649,24.31],[52.645,24.351],[52.611,24.373],[52.574,24.344]]],[[[53.323,24.263],[53.332,24.288],[53.428,24.329],[53.447,24.38],[53.399,24.401],[53.362,24.351],[53.232,24.296],[53.323,24.263]]],[[[54.383,24.44],[54.457,24.421],[54.451,24.453],[54.375,24.504],[54.335,24.469],[54.383,24.44]]],[[[54.266,24.295],[54.232,24.358],[54.183,24.315],[54.222,24.284],[54.266,24.295]]]]},"properties":{"name":"Abu Dhabi","name_local":"Abu Dhabi","iso_3166_2":"AE-AZ","name_ar":"أبوظبي","name_ar_full":"إمارة أبوظبي","name_ar_plain":"ابوظبي","alias_1":"Aboû Dabî","alias_2":"Abu Dabi","alias_3":"Abū Ẓabī","alias_4":"Abū Ẓaby","alias_5":"Emirate of Abu Dhabi","alias_6":"Abu Dhabi","alias_7":"Abu Dhabi","alias_8":"Abu Dhabi","alias_9":"Abu Dhabi"}},
{"type":"Feature","geometry":{"type":"Polygon","coordinates":[[[55.515,25.513],[55.626,25.444],[55.696,25.418],[55.761,25.369],[55.807,25.286],[55.863,25.28],[55.904,25.295],[55.928,25.348],[55.881,25.394],[55.882,25.437],[55.845,25.474],[55.802,25.626],[55.746,25.662],[55.657,25.598],[55.626,25.536],[55.515,25.513]]]},"properties":{"name":"Umm Al Quwain","name_local":"Umm Al Qaywayn","iso_3166_2":"AE-UQ","name_ar":"أم القيوين","name_ar_full":"أم القيوين","name_ar_plain":"ام القيوين","alias_1":"Oumm al Qaïwaïn","alias_2":"Umm al Qi`īwayn","alias_3":"Qaiwan","alias_4":"Umm al Qaiwain","alias_5":"Umm al Qayqayn","alias_6":"Umm el Quwain","alias_7":"Um al Qaiuan","alias_8":"Emirate of Umm Al Quwain","alias_9":"Umm al-Quwain"}},
{"type":"Feature","geometry":{"type":"Polygon","coordinates":[[[55.424,25.395],[55.513,25.364],[55.597,25.36],[55.632,25.413],[55.557,25.432],[55.492,25.46],[55.473,25.413],[55.424,25.395]]]},"properties":{"name":"Ajman","name_local":"Ajman","iso_3166_2":"AE-AJ","name_ar":"عجمان","name_ar_full":"عجمان","name_ar_plain":"عجمان","alias_1":"`Adjmân","alias_2":"Ajmã","alias_3":"`Ajmān","alias_4":"Emirate of Ajman","alias_5":"Ajman","alias_6":"Ajman","alias_7":"Ajman","alias_8":"Ajman","alias_9":"Ajman"}}
]}